GLOBAL-19               
1 55982U 23041B   26138.36370624  .00008255  00000+0  21992-3 0  9995
2 55982  42.0031  15.8856 0005162 143.8114 216.3076 15.38378725177335
BRO-9                   
1 56185U 23054H   26138.53261274  .00153997  00000+0  70664-3 0  9998
2 56185  97.2976  54.8061 0007986 120.5093 239.6966 15.83205826174374
ION SCV-010             
1 56192U 23054Q   26138.25973539  .00002929  00000+0  11691-3 0  9992
2 56192  97.3817  28.1432 0011538 316.9924  43.0412 15.25910519171632
TELEOS-2                
1 56310U 23057C   26138.56285525  .00003541  00000+0  24477-3 0  9999
2 56310   9.9889  59.8684 0000734 263.5129  96.5001 14.96422691168350
SNIPE 4                 
1 56744U 23072B   26138.55245972  .00012596  00000+0  30627-3 0  9992
2 56744  97.5272 343.6430 0007011  79.0983 281.1052 15.41096210165547
SNIPE 2                 
1 56745U 23072C   26138.54878867  .00015605  00000+0  32964-3 0  9997
2 56745  97.5268 346.4850 0006391 103.5128 256.6832 15.45253608165660
2023-072G               
1 56749U 23072G   26138.55392918  .00017817  00000+0  33284-3 0  9993
2 56749  97.4924 345.2645 0005615  95.0682 265.1210 15.48803207165876
GEISAT PRECURSOR        
1 56934U 23084C   26138.48186095  .00004883  00000+0  14996-3 0  9999
2 56934  97.6188 278.4747 0007239  93.7968 266.4102 15.34204440162973
BLACKJACK ACES-3        
1 56950U 23084U   26138.31665831  .00003320  00000+0  16547-3 0  9998
2 56950  97.6174 273.2936 0004091 103.1655 257.0035 15.18264641162636
BLACKJACK ACES-2        
1 56955U 23084Z   26138.32319956  .00003939  00000+0  19532-3 0  9991
2 56955  97.6171 273.3843 0002667  93.0416 267.1123 15.18332220162645
BLACKJACK ACES-1        
1 56956U 23084AA  26138.31100872  .00004490  00000+0  22308-3 0  9994
2 56956  97.6162 273.1496 0001521  95.8782 264.2625 15.18181941112363
ION SCV-011             
1 56957U 23084AB  26138.47971316  .00003428  00000+0  12659-3 0  9999
2 56957  98.1378 323.0145 0008238 134.5389 225.6523 15.28526327161275
GHOST-3                 
1 56958U 23084AC  26138.35128628  .00010339  00000+0  20770-3 0  9999
2 56958  97.6185 285.3542 0006831  52.0121 308.1744 15.46835742163405
TOMORROW-R2             
1 56962U 23084AG  26138.41403523  .00130299  83951-5  44335-3 0  9994
2 56962  97.5931 298.7726 0002147 271.8747  88.2279 15.89871711164303
AFR-1                   
1 56964U 23084AJ  26138.57484844  .00003089  00000+0  11481-3 0  9998
2 56964  97.6236 274.5669 0012028  85.0886 275.1725 15.28274709162702
METEOR-M2 3             
1 57166U 23091A   26138.51801770  .00000002  00000+0  19610-4 0  9991
2 57166  98.6099 194.1001 0002812 250.2661 109.8215 14.24044009150290
UMKA 1 (RS40S)          
1 57172U 23091G   26138.48195787  .00003525  00000+0  16454-3 0  9993
2 57172  97.5066 197.2986 0011959 216.8951 143.1463 15.20443917159492
2023-091H               
1 57173U 23091H   26138.52276035  .00007002  00000+0  25934-3 0  9992
2 57173  97.5061 201.4878 0009385 209.1063 150.9654 15.27935287159777
2023-091J               
1 57174U 23091J   26138.50937087  .00002081  00000+0  11907-3 0  9999
2 57174  97.5073 192.0303 0011789 247.1107 112.8880 15.13705518159147
CUBEBEL 2 (EU11S)       
1 57175U 23091K   26138.53300589  .00007169  00000+0  26180-3 0  9995
2 57175  97.5064 201.5001 0009410 210.8586 149.2101 15.28392170159776
SITRO-AIS 5 (KATYS)     
1 57176U 23091L   26138.49063472  .00006794  00000+0  24576-3 0  9998
2 57176  97.5074 202.1220 0011260 199.3195 160.7619 15.28708729159808
ZORKIY-2M 1             
1 57177U 23091M   26138.46950875  .00004103  00000+0  19076-3 0  9999
2 57177  97.5107 197.5356 0012613 213.9553 146.0876 15.20478724159484
CUBESX-HSE 3 (RS42S)    
1 57178U 23091N   26138.49703566  .00007788  00000+0  26716-3 0  9997
2 57178  97.5105 203.7255 0010959 189.1817 170.9224 15.30394138159883
MONITOR-3 (RS58S)       
1 57180U 23091Q   26138.52315104  .00006588  00000+0  24959-3 0  9995
2 57180  97.5096 201.7638 0011599 196.3925 163.6940 15.27187078159769
MONITOR-4 (RS57S)       
1 57182U 23091S   26138.50404382  .00006167  00000+0  23314-3 0  9999
2 57182  97.5091 201.7137 0011552 196.8915 163.1941 15.27283996159765
MONITOR-2 (RS39S)       
1 57184U 23091U   26138.53253235  .00003148  00000+0  15530-3 0  9990
2 57184  97.5090 197.0108 0010541 208.2514 151.8150 15.18606713159459
SVYATOBOR 1 (RS60S)     
1 57187U 23091X   26138.49244632  .00005527  00000+0  21723-3 0  9993
2 57187  97.5102 202.1553 0009494 187.2202 172.8901 15.26059020159788
HORS 1                  
1 57188U 23091Y   26138.47994788  .00005790  00000+0  22680-3 0  9991
2 57188  97.5081 201.9091 0008959 186.4569 173.6555 15.26156281159782
VIZARD-METEO (RS38S)    
1 57189U 23091Z   26138.43132913  .00009356  00000+0  27770-3 0  9999
2 57189  97.5102 207.3418 0008183 167.0110 193.1345 15.34996311160125
SITRO-AIS 6 (CHIRKIN)   
1 57192U 23091AC  26138.46794058  .00006305  00000+0  25279-3 0  9993
2 57192  97.5082 201.3727 0011374 202.7860 157.2875 15.25315952159750
