OBJECT_NAME,OBJECT_ID,EPOCH,MEAN_MOTION,ECCENTRICITY,INCLINATION,RA_OF_ASC_NODE,ARG_OF_PERICENTER,MEAN_ANOMALY,EPHEMERIS_TYPE,CLASSIFICATION_TYPE,NORAD_CAT_ID,ELEMENT_SET_NO,REV_AT_EPOCH,BSTAR,MEAN_MOTION_DOT,MEAN_MOTION_DDOT
GLOBAL-19,2023-041B,2026-05-18T08:43:44.219136,15.38378725,.0005162,42.0031,15.8856,143.8114,216.3076,0,U,55982,999,17733,.21992E-3,.8255E-4,0
BRO-9,2023-054H,2026-05-18T12:46:57.740736,15.83205826,.0007986,97.2976,54.8061,120.5093,239.6966,0,U,56185,999,17437,.70664E-3,.153997E-2,0
ION SCV-010,2023-054Q,2026-05-18T06:14:01.137696,15.25910519,.0011538,97.3817,28.1432,316.9924,43.0412,0,U,56192,999,17163,.11691E-3,.2929E-4,0
TELEOS-2,2023-057C,2026-05-18T13:30:30.693600,14.96422691,.0000734,9.9889,59.8684,263.5129,96.5001,0,U,56310,999,16835,.24477E-3,.3541E-4,0
SNIPE 4,2023-072B,2026-05-18T13:15:32.519808,15.41096210,.0007011,97.5272,343.6430,79.0983,281.1052,0,U,56744,999,16554,.30627E-3,.12596E-3,0
SNIPE 2,2023-072C,2026-05-18T13:10:15.341088,15.45253608,.0006391,97.5268,346.4850,103.5128,256.6832,0,U,56745,999,16566,.32964E-3,.15605E-3,0
2023-072G,2023-072G,2026-05-18T13:17:39.481152,15.48803207,.0005615,97.4924,345.2645,95.0682,265.1210,0,U,56749,999,16587,.33284E-3,.17817E-3,0
GEISAT PRECURSOR,2023-084C,2026-05-18T11:33:52.786080,15.34204440,.0007239,97.6188,278.4747,93.7968,266.4102,0,U,56934,999,16297,.14996E-3,.4883E-4,0
BLACKJACK ACES-3,2023-084U,2026-05-18T07:35:59.277984,15.18264641,.0004091,97.6174,273.2936,103.1655,257.0035,0,U,56950,999,16263,.16547E-3,.332E-4,0
BLACKJACK ACES-2,2023-084Z,2026-05-18T07:45:24.441984,15.18332220,.0002667,97.6171,273.3843,93.0416,267.1123,0,U,56955,999,16264,.19532E-3,.3939E-4,0
BLACKJACK ACES-1,2023-084AA,2026-05-18T07:27:51.153408,15.18181941,.0001521,97.6162,273.1496,95.8782,264.2625,0,U,56956,999,11236,.22308E-3,.449E-4,0
ION SCV-011,2023-084AB,2026-05-18T11:30:47.217024,15.28526327,.0008238,98.1378,323.0145,134.5389,225.6523,0,U,56957,999,16127,.12659E-3,.3428E-4,0
GHOST-3,2023-084AC,2026-05-18T08:25:51.134592,15.46835742,.0006831,97.6185,285.3542,52.0121,308.1744,0,U,56958,999,16340,.2077E-3,.10339E-3,0
TOMORROW-R2,2023-084AG,2026-05-18T09:56:12.643872,15.89871711,.0002147,97.5931,298.7726,271.8747,88.2279,0,U,56962,999,16430,.44335E-3,.130299E-2,.83951E-5
AFR-1,2023-084AJ,2026-05-18T13:47:46.905216,15.28274709,.0012028,97.6236,274.5669,85.0886,275.1725,0,U,56964,999,16270,.11481E-3,.3089E-4,0
METEOR-M2 3,2023-091A,2026-05-18T12:25:56.729280,14.24044009,.0002812,98.6099,194.1001,250.2661,109.8215,0,U,57166,999,15029,.1961E-4,.2E-7,0
UMKA 1 (RS40S),2023-091G,2026-05-18T11:34:01.159968,15.20443917,.0011959,97.5066,197.2986,216.8951,143.1463,0,U,57172,999,15949,.16454E-3,.3525E-4,0
2023-091H,2023-091H,2026-05-18T12:32:46.494240,15.27935287,.0009385,97.5061,201.4878,209.1063,150.9654,0,U,57173,999,15977,.25934E-3,.7002E-4,0
2023-091J,2023-091J,2026-05-18T12:13:29.643168,15.13705518,.0011789,97.5073,192.0303,247.1107,112.8880,0,U,57174,999,15914,.11907E-3,.2081E-4,0
CUBEBEL 2 (EU11S),2023-091K,2026-05-18T12:47:31.708896,15.28392170,.000941,97.5064,201.5001,210.8586,149.2101,0,U,57175,999,15977,.2618E-3,.7169E-4,0
SITRO-AIS 5 (KATYS),2023-091L,2026-05-18T11:46:30.839808,15.28708729,.001126,97.5074,202.1220,199.3195,160.7619,0,U,57176,999,15980,.24576E-3,.6794E-4,0
ZORKIY-2M 1,2023-091M,2026-05-18T11:16:05.556000,15.20478724,.0012613,97.5107,197.5356,213.9553,146.0876,0,U,57177,999,15948,.19076E-3,.4103E-4,0
CUBESX-HSE 3 (RS42S),2023-091N,2026-05-18T11:55:43.881024,15.30394138,.0010959,97.5105,203.7255,189.1817,170.9224,0,U,57178,999,15988,.26716E-3,.7788E-4,0
MONITOR-3 (RS58S),2023-091Q,2026-05-18T12:33:20.249856,15.27187078,.0011599,97.5096,201.7638,196.3925,163.6940,0,U,57180,999,15976,.24959E-3,.6588E-4,0
MONITOR-4 (RS57S),2023-091S,2026-05-18T12:05:49.386048,15.27283996,.0011552,97.5091,201.7137,196.8915,163.1941,0,U,57182,999,15976,.23314E-3,.6167E-4,0
MONITOR-2 (RS39S),2023-091U,2026-05-18T12:46:50.795040,15.18606713,.0010541,97.5090,197.0108,208.2514,151.8150,0,U,57184,999,15945,.1553E-3,.3148E-4,0
SVYATOBOR 1 (RS60S),2023-091X,2026-05-18T11:49:07.362048,15.26059020,.0009494,97.5102,202.1553,187.2202,172.8901,0,U,57187,999,15978,.21723E-3,.5527E-4,0
HORS 1,2023-091Y,2026-05-18T11:31:07.496832,15.26156281,.0008959,97.5081,201.9091,186.4569,173.6555,0,U,57188,999,15978,.2268E-3,.579E-4,0
VIZARD-METEO (RS38S),2023-091Z,2026-05-18T10:21:06.836832,15.34996311,.0008183,97.5102,207.3418,167.0110,193.1345,0,U,57189,999,16012,.2777E-3,.9356E-4,0
SITRO-AIS 6 (CHIRKIN),2023-091AC,2026-05-18T11:13:50.066112,15.25315952,.0011374,97.5082,201.3727,202.7860,157.2875,0,U,57192,999,15975,.25279E-3,.6305E-4,0
